{
  "Barishal": [
    { "label": "Barishal", "value": "Barishal", "postCode": "8200" },
    { "label": "Barguna", "value": "Barguna", "postCode": "8700" },
    { "label": "Bhola", "value": "Bhola", "postCode": "8300" },
    { "label": "Jhalokati", "value": "Jhalokati", "postCode": "8400" },
    { "label": "Patuakhali", "value": "Patuakhali", "postCode": "8600" },
    { "label": "Pirojpur", "value": "Pirojpur", "postCode": "8500" }
  ],
  "Chattogram": [
    { "label": "Bandarban", "value": "Bandarban", "postCode": "4600" },
    { "label": "Brahmanbaria", "value": "Brahmanbaria", "postCode": "3400" },
    { "label": "Chandpur", "value": "Chandpur", "postCode": "3600" },
    { "label": "Chattogram", "value": "Chattogram", "postCode": "4000" },
    { "label": "Cumilla", "value": "Cumilla", "postCode": "3500" },
    { "label": "Cox's Bazar", "value": "Cox's Bazar", "postCode": "4700" },
    { "label": "Feni", "value": "Feni", "postCode": "3900" },
    { "label": "Khagrachari", "value": "Khagrachari", "postCode": "4400" },
    { "label": "Lakshmipur", "value": "Lakshmipur", "postCode": "3700" },
    { "label": "Noakhali", "value": "Noakhali", "postCode": "3800" },
    { "label": "Rangamati", "value": "Rangamati", "postCode": "4500" }
  ],
  "Dhaka": [
    { "label": "Dhaka", "value": "Dhaka", "postCode": "1000" },
    { "label": "Faridpur", "value": "Faridpur", "postCode": "7800" },
    { "label": "Gazipur", "value": "Gazipur", "postCode": "1700" },
    { "label": "Gopalganj", "value": "Gopalganj", "postCode": "8100" },
    { "label": "Kishoreganj", "value": "Kishoreganj", "postCode": "2300" },
    { "label": "Madaripur", "value": "Madaripur", "postCode": "7900" },
    { "label": "Manikganj", "value": "Manikganj", "postCode": "1800" },
    { "label": "Munshiganj", "value": "Munshiganj", "postCode": "1500" },
    { "label": "Narayanganj", "value": "Narayanganj", "postCode": "1400" },
    { "label": "Narsingdi", "value": "Narsingdi", "postCode": "1600" },
    { "label": "Rajbari", "value": "Rajbari", "postCode": "7700" },
    { "label": "Shariatpur", "value": "Shariatpur", "postCode": "8010" },
    { "label": "Tangail", "value": "Tangail", "postCode": "1900" }
  ],
  "Khulna": [
    { "label": "Bagerhat", "value": "Bagerhat", "postCode": "9300" },
    { "label": "Chuadanga", "value": "Chuadanga", "postCode": "7200" },
    { "label": "Jashore", "value": "Jashore", "postCode": "7400" },
    { "label": "Jhenaidah", "value": "Jhenaidah", "postCode": "7300" },
    { "label": "Khulna", "value": "Khulna", "postCode": "9000" },
    { "label": "Kushtia", "value": "Kushtia", "postCode": "7000" },
    { "label": "Magura", "value": "Magura", "postCode": "7600" },
    { "label": "Meherpur", "value": "Meherpur", "postCode": "7100" },
    { "label": "Narail", "value": "Narail", "postCode": "7500" },
    { "label": "Satkhira", "value": "Satkhira", "postCode": "9400" }
  ],
  "Mymensingh": [
    { "label": "Jamalpur", "value": "Jamalpur", "postCode": "2000" },
    { "label": "Mymensingh", "value": "Mymensingh", "postCode": "2200" },
    { "label": "Netrokona", "value": "Netrokona", "postCode": "2400" },
    { "label": "Sherpur", "value": "Sherpur", "postCode": "2100" }
  ],
  "Rajshahi": [
    { "label": "Bogura", "value": "Bogura", "postCode": "5800" },
    { "label": "Jaipurhat", "value": "Jaipurhat", "postCode": "5900" },
    { "label": "Naogaon", "value": "Naogaon", "postCode": "6500" },
    { "label": "Natore", "value": "Natore", "postCode": "6400" },
    { "label": "Nawabganj", "value": "Nawabganj", "postCode": "6300" },
    { "label": "Pabna", "value": "Pabna", "postCode": "6600" },
    { "label": "Rajshahi", "value": "Rajshahi", "postCode": "6000" },
    { "label": "Sirajganj", "value": "Sirajganj", "postCode": "6700" }
  ],
  "Rangpur": [
    { "label": "Dinajpur", "value": "Dinajpur", "postCode": "5200" },
    { "label": "Gaibandha", "value": "Gaibandha", "postCode": "5700" },
    { "label": "Kurigram", "value": "Kurigram", "postCode": "5600" },
    { "label": "Lalmonirhat", "value": "Lalmonirhat", "postCode": "5500" },
    { "label": "Nilphamari", "value": "Nilphamari", "postCode": "5300" },
    { "label": "Panchagarh", "value": "Panchagarh", "postCode": "5000" },
    { "label": "Rangpur", "value": "Rangpur", "postCode": "5400" },
    { "label": "Thakurgaon", "value": "Thakurgaon", "postCode": "5100" }
  ],
  "Sylhet": [
    { "label": "Habiganj", "value": "Habiganj", "postCode": "3300" },
    { "label": "Moulvibazar", "value": "Moulvibazar", "postCode": "3200" },
    { "label": "Sunamganj", "value": "Sunamganj", "postCode": "3000" },
    { "label": "Sylhet", "value": "Sylhet", "postCode": "3100" }
  ]
}